[{"OBJECT_NAME":"STARLINK-11687 [DTC]","OBJECT_ID":"2025-075H","EPOCH":"2026-03-09T22:00:01.999584","MEAN_MOTION":15.89300755,"ECCENTRICITY":0.00098176,"INCLINATION":42.9909,"RA_OF_ASC_NODE":150.5403,"ARG_OF_PERICENTER":40.708,"MEAN_ANOMALY":15.0039,"EPHEMERIS_TYPE":0,"CLASSIFICATION_TYPE":"U","NORAD_CAT_ID":63555,"ELEMENT_SET_NO":999,"REV_AT_EPOCH":598,"BSTAR":0.00097147688,"MEAN_MOTION_DOT":0.00289999,"MEAN_MOTION_DDOT":3.85854e-5},{"OBJECT_NAME":"OBJECT K","OBJECT_ID":"2026-042K","EPOCH":"2026-03-09T18:00:02.000160","MEAN_MOTION":16.02042577,"ECCENTRICITY":8.118e-5,"INCLINATION":53.1609,"RA_OF_ASC_NODE":194.9932,"ARG_OF_PERICENTER":58.8941,"MEAN_ANOMALY":357.196,"EPHEMERIS_TYPE":0,"CLASSIFICATION_TYPE":"U","NORAD_CAT_ID":68078,"ELEMENT_SET_NO":999,"REV_AT_EPOCH":206,"BSTAR":-0.0021823234,"MEAN_MOTION_DOT":-0.01288128,"MEAN_MOTION_DDOT":0.00053785284}]
